     2.100          NAVIGATION                              RINEX VERSION / TYPE
fic2rin                                 03/06/2010 00:19:34 PGM / RUN BY / DATE
                                                            END OF HEADER
16 10  3  5  9 59 44.0 -.478583388031D-04 -.397903932026D-11  .000000000000D+00
     .200000000000D+01  .143750000000D+01  .457447625958D-08 -.114838853588D+01
    -.149011611938D-06  .573316460941D-02  .682659447193D-05  .515371543312D+04
     .467984000000D+06 -.633299350739D-07 -.119709722281D+01 -.875443220139D-07
     .970880727434D+00  .252781250000D+03 -.270888406149D+00 -.805033532878D-08
     .451447376024D-09  .100000000000D+01  .157300000000D+04  .000000000000D+00
     .240000000000D+01  .000000000000D+00 -.977888703346D-08  .200000000000D+01
     .463236000000D+06  .400000000000D+01
26 10  3  5  9 59 44.0 -.247010029852D-04 -.386535248253D-11  .000000000000D+00
     .390000000000D+02 -.399062500000D+02  .394230707006D-08  .924502460233D+00
    -.203587114811D-05  .193289784947D-01  .522285699844D-05  .515233220673D+04
     .467984000000D+06 -.225380063057D-06  .302929181745D+01 -.186264514923D-08
     .991430592241D+00  .302781250000D+03  .106399077892D+01 -.819105547605D-08
    -.357157734196D-09  .100000000000D+01  .157300000000D+04  .000000000000D+00
     .240000000000D+01  .000000000000D+00 -.605359673500D-08  .390000000000D+02
     .464796000000D+06  .400000000000D+01
31 10  3  5  9 59 44.0 -.488162040710D-04  .170530256582D-11  .000000000000D+00
     .000000000000D+00 -.502500000000D+02  .394373570099D-08  .107782968551D+01
    -.265426933765D-05  .757852685638D-02  .917539000511D-05  .515363997841D+04
     .467984000000D+06  .502914190292D-07 -.226898046963D+01 -.188127160072D-06
     .976087125604D+00  .208968750000D+03 -.108526535140D+01 -.781818280155D-08
     .213580325049D-09  .100000000000D+01  .157300000000D+04  .000000000000D+00
     .240000000000D+01  .000000000000D+00 -.130385160446D-07  .000000000000D+00
     .466986000000D+06  .400000000000D+01
27 10  3  5  9 59 44.0  .131403096020D-03  .329691829393D-11  .000000000000D+00
     .200000000000D+02 -.609687500000D+02  .382658796418D-08 -.280432186141D+01
    -.317022204399D-05  .216854988830D-01  .882335007191D-05  .515366795921D+04
     .467984000000D+06  .284984707832D-06 -.232479454674D+01  .191852450371D-06
     .977654342428D+00  .209687500000D+03 -.145335277185D+01 -.742459497847D-08
     .251439044874D-09  .100000000000D+01  .157300000000D+04  .000000000000D+00
     .240000000000D+01  .000000000000D+00 -.419095158577D-08  .200000000000D+02
     .467166000000D+06  .400000000000D+01
11 10  3  5 11 59 44.0 -.488273799419D-04 -.216004991671D-11  .000000000000D+00
     .240000000000D+02  .154062500000D+02  .610418283515D-08  .206144382746D+01
     .683590769768D-06  .105106332339D-01  .102445483208D-04  .515373108482D+04
     .475184000000D+06 -.203028321266D-06  .641482201726D+00 -.128522515297D-06
     .888895625202D+00  .144468750000D+03  .794445093107D+00 -.860464413225D-08
    -.267868300647D-09  .100000000000D+01  .157300000000D+04  .000000000000D+00
     .240000000000D+01  .000000000000D+00 -.116415321827D-07  .240000000000D+02
     .468006000000D+06  .400000000000D+01
16 10  3  5 11 59 44.0 -.478867441416D-04 -.397903932026D-11  .000000000000D+00
     .300000000000D+01 -.119062500000D+02  .448732977244D-08 -.980559492924D-01
    -.612810254097D-06  .573475682177D-02  .683031976223D-05  .515371903038D+04
     .475184000000D+06  .353902578354D-07 -.119715502124D+01 -.800937414169D-07
     .970883565495D+00  .251281250000D+03 -.271066675884D+00 -.809748014969D-08
     .388944772540D-09  .100000000000D+01  .157300000000D+04  .000000000000D+00
     .240000000000D+01  .000000000000D+00 -.977888703346D-08  .300000000000D+01
     .468006000000D+06  .400000000000D+01
17 10  3  5 11 59 44.0  .134634319693D-03  .295585778076D-11  .000000000000D+00
     .100000000000D+02 -.348125000000D+02  .483055835500D-08 -.136448501164D+01
    -.176206231117D-05  .522028596606D-02  .746920704842D-05  .515356592941D+04
     .475184000000D+06  .838190317154D-07 -.154054648126D+00 -.130385160446D-07
     .960449132596D+00  .235031250000D+03 -.256156361150D+01 -.802426281418D-08
    -.225723688012D-09  .100000000000D+01  .157300000000D+04  .000000000000D+00
     .240000000000D+01  .000000000000D+00 -.102445483208D-07  .100000000000D+02
     .468006000000D+06  .400000000000D+01
26 10  3  5 11 59 44.0 -.247289426625D-04 -.386535248253D-11  .000000000000D+00
     .400000000000D+02 -.500312500000D+02  .382587364871D-08  .197539890665D+01
    -.298395752907D-05  .193287496222D-01  .453740358353D-05  .515233579254D+04
     .475184000000D+06 -.726431608200D-07  .302923269508D+01 -.366941094398D-06
     .991429634029D+00  .313593750000D+03  .106409131357D+01 -.787961393183D-08
    -.241081470582D-09  .100000000000D+01  .157300000000D+04  .000000000000D+00
     .240000000000D+01  .000000000000D+00 -.605359673500D-08  .400000000000D+02
     .468006000000D+06  .400000000000D+01
27 10  3  5 11 59 44.0  .131426379085D-03  .329691829393D-11  .000000000000D+00
     .230000000000D+02 -.585625000000D+02  .382337354457D-08 -.175417395799D+01
    -.249780714512D-05  .216856519692D-01  .941939651966D-05  .515366681290D+04
     .475184000000D+06  .167638063431D-06 -.232484783353D+01  .517815351486D-06
     .977655073887D+00  .203375000000D+03 -.145332182382D+01 -.765317592835D-08
     .175364447490D-09  .100000000000D+01  .157300000000D+04  .000000000000D+00
     .240000000000D+01  .000000000000D+00 -.419095158577D-08  .230000000000D+02
     .468006000000D+06  .400000000000D+01
31 10  3  5 11 59 44.0 -.488040968776D-04  .170530256582D-11  .000000000000D+00
     .800000000000D+01 -.522187500000D+02  .386873257681D-08  .212799607876D+01
    -.263005495071D-05  .757896294817D-02  .880658626556D-05  .515364038277D+04
     .475184000000D+06  .894069671631D-07 -.226903546657D+01  .223517417908D-07
     .976089113710D+00  .215437500000D+03 -.108523572292D+01 -.763960393445D-08
     .139648674071D-09  .100000000000D+01  .157300000000D+04  .000000000000D+00
     .240000000000D+01  .000000000000D+00 -.130385160446D-07  .800000000000D+01
     .468006000000D+06  .400000000000D+01
 1 10  3  5 12  0  0.0 -.948263332248D-04 -.397903932026D-11  .000000000000D+00
     .720000000000D+02 -.124062500000D+02  .598060625911D-08 -.344596834298D-01
    -.651925802231D-06  .437540351413D-02  .690296292305D-05  .515479277802D+04
     .475200000000D+06  .242143869400D-07 -.122839123344D+01  .167638063431D-07
     .963524083994D+00  .250250000000D+03  .875480300686D+00 -.814891086342D-08
     .378230040514D-09  .100000000000D+01  .157300000000D+04  .000000000000D+00
     .240000000000D+01  .630000000000D+02 -.190921127796D-07  .720000000000D+02
     .468006000000D+06  .400000000000D+01
 2 10  3  5 12  0  0.0  .233142636716D-03  .397903932026D-11  .000000000000D+00
     .940000000000D+02  .591250000000D+02  .475626954629D-08 -.246186919981D+01
     .299513339996D-05  .939320819452D-02  .111609697342D-04  .515379187012D+04
     .475200000000D+06 -.206753611565D-06  .855844884026D+00 -.912696123123D-07
     .940313558874D+00  .152968750000D+03  .298056778452D+01 -.797783230874D-08
    -.250010413937D-09  .100000000000D+01  .157300000000D+04  .000000000000D+00
     .340000000000D+01  .000000000000D+00 -.172294676304D-07  .940000000000D+02
     .468006000000D+06  .400000000000D+01
 3 10  3  5 12  0  0.0  .524010974914D-03  .500222085975D-11  .000000000000D+00
     .350000000000D+02 -.375937500000D+02  .559951895673D-08 -.259618302510D+01
    -.209733843803D-05  .128809156595D-01  .644661486149D-05  .515369191742D+04
     .475200000000D+06  .244006514549D-06 -.295025329995D+00 -.135973095894D-06
     .927261962606D+00  .234562500000D+03  .983018418297D+00 -.839392106908D-08
    -.785747015231D-10  .100000000000D+01  .157300000000D+04  .000000000000D+00
     .240000000000D+01  .000000000000D+00 -.419095158577D-08  .350000000000D+02
     .468006000000D+06  .400000000000D+01
 4 10  3  5 12  0  0.0  .295056961477D-04  .886757334229D-11  .000000000000D+00
     .310000000000D+02  .530937500000D+02  .492484799683D-08  .552255413620D+00
     .299699604511D-05  .911344995257D-02  .105183571577D-04  .515364919472D+04
     .475200000000D+06  .000000000000D+00  .873818948009D+00  .108033418655D-06
     .939453684885D+00  .164062500000D+03  .597331680805D+00 -.820819904729D-08
    -.305727020472D-09  .100000000000D+01  .157300000000D+04  .000000000000D+00
     .240000000000D+01  .000000000000D+00 -.605359673500D-08  .310000000000D+02
     .468006000000D+06  .400000000000D+01
 5 10  3  5 12  0  0.0 -.496627762914D-05  .170530256582D-11  .000000000000D+00
     .180000000000D+02  .101812500000D+03  .463519307440D-08 -.100101891575D+01
     .523030757904D-05  .191485637333D-02  .495277345181D-05  .515366254425D+04
     .475200000000D+06  .614672899246D-07  .191533264749D+01 -.465661287308D-07
     .959024477139D+00  .283656250000D+03  .346221254145D+00 -.829391690350D-08
     .571452374714D-10  .100000000000D+01  .157300000000D+04  .000000000000D+00
     .240000000000D+01  .000000000000D+00 -.884756445885D-08  .180000000000D+02
     .468006000000D+06  .400000000000D+01
 6 10  3  5 12  0  0.0  .694290734828D-03 -.659383658785D-11  .000000000000D+00
     .410000000000D+02 -.347187500000D+02  .549272879420D-08 -.340228710131D+00
    -.186637043953D-05  .605629140045D-02  .700354576111D-05  .515365906525D+04
     .475200000000D+06 -.502914190292D-07 -.225116831557D+00 -.540167093277D-07
     .934670061263D+00  .232468750000D+03 -.113198860979D+01 -.856357099282D-08
    -.166435504135D-09  .100000000000D+01  .157300000000D+04  .000000000000D+00
     .240000000000D+01  .000000000000D+00 -.465661287308D-08  .410000000000D+02
     .468006000000D+06  .400000000000D+01
